STARLINK-1286
1 45417U 20019BK  26092.50072068  .00051403  00000+0  81879-3 0  9998
2 45417  53.0502  16.1555 0003740 123.8599 236.2767 15.52770510333928
